STARLINK-36839          
1 68125U 26044AA  26089.15187851 -.00864154  00000+0 -68416-2 0  9995
2 68125  97.2843  50.3365 0000452  86.3688 273.7628 15.73676565  4706
ECHOSTAR 25             
1 68126U 26045A   26089.22594292  .00000041  00000+0  00000+0 0  9993
2 68126   0.0499 282.2161 0002462 110.8350 106.9976  1.00272911   204
ICOR SV                 
1 68127U 26046A   26089.08117175  .00482223  12137-4  70404-3 0  9994
2 68127 123.0765 298.7803 0101004 224.1446 135.1534 15.95276688  2849
FIREFLY ALPHA R/B       
1 68128U 26046B   26089.18670103  .00044776  00000+0  60130-3 0  9994
2 68128 123.0937 295.4597 0016428  21.1333 339.0404 15.57366407  2837
GUOWANG GROUP 20 OBJECT*
1 68129U 26047A   26086.61766448 -.00000101  00000+0  34814-4 0  9995
2 68129  50.0073 357.5704 0001326 229.8596 130.2189 13.95400488  2083
GUOWANG GROUP 20 OBJECT*
1 68130U 26047B   26085.75628566 -.00000072  00000+0  55036-4 0  9995
2 68130  50.0066   1.0171 0000428 307.3036  52.7826 13.96591410  1957
GUOWANG GROUP 20 OBJECT*
1 68131U 26047C   26085.82615450 -.00000111  00000+0  27090-4 0  9995
2 68131  49.9996   0.7054 0000048  49.5998 310.4907 13.96862690  1970
GUOWANG GROUP 20 OBJECT*
1 68132U 26047D   26083.82212781 -.00000102  00000+0  32409-4 0  9994
2 68132  50.0048   8.7665 0002416   7.3102 352.7836 14.00513037  1680
GUOWANG GROUP 20 OBJECT*
1 68133U 26047E   26083.32146819 -.00000126  00000+0  15966-4 0  9993
2 68133  49.9979  10.8404 0003230 188.5214 171.5635 14.01339008  1620
GUOWANG GROUP 20 OBJECT*
1 68134U 26047F   26083.10517479 -.00000032  00000+0  77668-4 0  9997
2 68134  50.0123  11.6502 0000475 222.9253 137.1614 14.01903676  1585
GUOWANG GROUP 20 OBJECT*
1 68135U 26047G   26085.74432800  .00000018  00000+0  11069-3 0  9999
2 68135  50.0409   0.8903 0004806 213.0056 147.0548 14.01583953  1962
GUOWANG GROUP 20 OBJECT*
1 68136U 26047H   26084.03205513 -.00000099  00000+0  33918-4 0  9998
2 68136  49.9530   7.8688 0014532 103.7924 256.4596 14.01074305  1715
